{"type": "FeatureCollection", "features": [ {"type": "Feature", "properties": {"norad_id": 37280, "name": "COSMOS 2251 DEB", "group": "cosmos-2251-debris", "lat": -60.78133488028827, "lon": 32.23395974180061, "alt_km": 853.9996068553355, "timestamp": "2025-12-09T09:46:48.043359+00:00", "meta": {"OBJECT_NAME": "COSMOS 2251 DEB", "OBJECT_ID": "1993-036BHU", "EPOCH": "2025-12-07T22:33:59.390208", "MEAN_MOTION": 14.19261757, "ECCENTRICITY": 0.01314572, "INCLINATION": 74.0315, "RA_OF_ASC_NODE": 65.6486, "ARG_OF_PERICENTER": 195.2525, "MEAN_ANOMALY": 164.4641, "EPHEMERIS_TYPE": 0, "CLASSIFICATION_TYPE": "U", "NORAD_CAT_ID": 37280, "ELEMENT_SET_NO": 999, "REV_AT_EPOCH": 57255, "BSTAR": 0.0024447431, "MEAN_MOTION_DOT": 5.567e-05, "MEAN_MOTION_DDOT": 0}, "tle": {"line1": "1 37280U 93036BHU 25341.94027072  .00005567  00000+0  24447-2 0  9992", "line2": "2 37280  74.0315  65.6486 0131457 195.2525 164.4641 14.19261757572550"}}, "geometry": {"type": "Point", "coordinates": [32.23395974180061, -60.78133488028827]}}, {"type": "Feature", "properties": {"norad_id": 37284, "name": "COSMOS 2251 DEB", "group": "cosmos-2251-debris", "lat": 13.212882939658812, "lon": 166.48728227509932, "alt_km": 789.3796996835144, "timestamp": "2025-12-09T09:46:48.043369+00:00", "meta": {"OBJECT_NAME": "COSMOS 2251 DEB", "OBJECT_ID": "1993-036BHY", "EPOCH": "2025-12-05T19:06:47.225088", "MEAN_MOTION": 14.12657303, "ECCENTRICITY": 0.01604408, "INCLINATION": 74.0121, "RA_OF_ASC_NODE": 169.0185, "ARG_OF_PERICENTER": 322.3384, "MEAN_ANOMALY": 52.3924, "EPHEMERIS_TYPE": 0, "CLASSIFICATION_TYPE": "U", "NORAD_CAT_ID": 37284, "ELEMENT_SET_NO": 999, "REV_AT_EPOCH": 59077, "BSTAR": 0.001984473, "MEAN_MOTION_DOT": 4.13e-05, "MEAN_MOTION_DDOT": 0}, "tle": {"line1": "1 37284U 93036BHY 25339.79637992  .00004130  00000+0  19845-2 0  9995", "line2": "2 37284  74.0121 169.0185 0160440 322.3384  52.3924 14.12657303590776"}}, "geometry": {"type": "Point", "coordinates": [166.48728227509932, 13.212882939658812]}}, {"type": "Feature", "properties": {"norad_id": 37292, "name": "COSMOS 2251 DEB", "group": "cosmos-2251-debris", "lat": -61.96606846341687, "lon": -92.16398046417251, "alt_km": 1040.702442114085, "timestamp": "2025-12-09T09:46:48.043380+00:00", "meta": {"OBJECT_NAME": "COSMOS 2251 DEB", "OBJECT_ID": "1993-036BJG", "EPOCH": "2025-12-02T14:04:30.366912", "MEAN_MOTION": 14.03226454, "ECCENTRICITY": 0.02102512, "INCLINATION": 74.129, "RA_OF_ASC_NODE": 67.3453, "ARG_OF_PERICENTER": 73.1105, "MEAN_ANOMALY": 289.2966, "EPHEMERIS_TYPE": 0, "CLASSIFICATION_TYPE": "U", "NORAD_CAT_ID": 37292, "ELEMENT_SET_NO": 999, "REV_AT_EPOCH": 59706, "BSTAR": 0.0022453288, "MEAN_MOTION_DOT": 4.236e-05, "MEAN_MOTION_DDOT": 0}, "tle": {"line1": "1 37292U 93036BJG 25336.58646258  .00004236  00000+0  22453-2 0  9999", "line2": "2 37292  74.1290  67.3453 0210251  73.1105 289.2966 14.03226454597064"}}, "geometry": {"type": "Point", "coordinates": [-92.16398046417251, -61.96606846341687]}}, {"type": "Feature", "properties": {"norad_id": 37295, "name": "COSMOS 2251 DEB", "group": "cosmos-2251-debris", "lat": 38.52881615472029, "lon": 94.8477105102122, "alt_km": 646.7437625978928, "timestamp": "2025-12-09T09:46:48.043390+00:00", "meta": {"OBJECT_NAME": "COSMOS 2251 DEB", "OBJECT_ID": "1993-036BJK", "EPOCH": "2025-12-08T06:55:47.796960", "MEAN_MOTION": 14.65195432, "ECCENTRICITY": 0.0043741, "INCLINATION": 74.0075, "RA_OF_ASC_NODE": 290.2038, "ARG_OF_PERICENTER": 110.7992, "MEAN_ANOMALY": 249.7871, "EPHEMERIS_TYPE": 0, "CLASSIFICATION_TYPE": "U", "NORAD_CAT_ID": 37295, "ELEMENT_SET_NO": 999, "REV_AT_EPOCH": 82239, "BSTAR": 0.00091244474, "MEAN_MOTION_DOT": 4.952e-05, "MEAN_MOTION_DDOT": 0}, "tle": {"line1": "1 37295U 93036BJK 25342.28874765  .00004952  00000+0  91244-3 0  9992", "line2": "2 37295  74.0075 290.2038 0043741 110.7992 249.7871 14.65195432822395"}}, "geometry": {"type": "Point", "coordinates": [94.8477105102122, 38.52881615472029]}}, {"type": "Feature", "properties": {"norad_id": 37305, "name": "COSMOS 2251 DEB", "group": "cosmos-2251-debris", "lat": -73.85660539679996, "lon": -154.4121117158529, "alt_km": 743.0898415176944, "timestamp": "2025-12-09T09:46:48.043401+00:00", "meta": {"OBJECT_NAME": "COSMOS 2251 DEB", "OBJECT_ID": "1993-036BJV", "EPOCH": "2025-12-01T04:54:57.845088", "MEAN_MOTION": 14.36058989, "ECCENTRICITY": 0.0050534, "INCLINATION": 73.8694, "RA_OF_ASC_NODE": 311.9126, "ARG_OF_PERICENTER": 273.9871, "MEAN_ANOMALY": 85.5504, "EPHEMERIS_TYPE": 0, "CLASSIFICATION_TYPE": "U", "NORAD_CAT_ID": 37305, "ELEMENT_SET_NO": 999, "REV_AT_EPOCH": 66701, "BSTAR": 0.00088749, "MEAN_MOTION_DOT": 2.593e-05, "MEAN_MOTION_DDOT": 0}, "tle": {"line1": "1 37305U 93036BJV 25335.20483617  .00002593  00000+0  88749-3 0  9995", "line2": "2 37305  73.8694 311.9126 0050534 273.9871  85.5504 14.36058989667014"}}, "geometry": {"type": "Point", "coordinates": [-154.4121117158529, -73.85660539679996]}}, {"type": "Feature", "properties": {"norad_id": 37312, "name": "COSMOS 2251 DEB", "group": "cosmos-2251-debris", "lat": -12.068928717811266, "lon": 33.91113726525854, "alt_km": 749.1690617061804, "timestamp": "2025-12-09T09:46:48.043411+00:00", "meta": {"OBJECT_NAME": "COSMOS 2251 DEB", "OBJECT_ID": "1993-036BKC", "EPOCH": "2025-12-08T07:59:13.205472", "MEAN_MOTION": 14.46106018, "ECCENTRICITY": 0.00182845, "INCLINATION": 74.0311, "RA_OF_ASC_NODE": 212.4063, "ARG_OF_PERICENTER": 316.0035, "MEAN_ANOMALY": 43.9667, "EPHEMERIS_TYPE": 0, "CLASSIFICATION_TYPE": "U", "NORAD_CAT_ID": 37312, "ELEMENT_SET_NO": 999, "REV_AT_EPOCH": 86100, "BSTAR": 0.00076862336, "MEAN_MOTION_DOT": 2.724e-05, "MEAN_MOTION_DDOT": 0}, "tle": {"line1": "1 37312U 93036BKC 25342.33279173  .00002724  00000+0  76862-3 0  9994", "line2": "2 37312  74.0311 212.4063 0018284 316.0035  43.9667 14.46106018861004"}}, "geometry": {"type": "Point", "coordinates": [33.91113726525854, -12.068928717811266]}}, {"type": "Feature", "properties": {"norad_id": 37316, "name": "COSMOS 2251 DEB", "group": "cosmos-2251-debris", "lat": 6.604047033004994, "lon": -154.10989974137098, "alt_km": 581.1911263668153, "timestamp": "2025-12-09T09:46:48.043422+00:00", "meta": {"OBJECT_NAME": "COSMOS 2251 DEB", "OBJECT_ID": "1993-036BKG", "EPOCH": "2025-12-08T13:43:44.897088", "MEAN_MOTION": 14.94224099, "ECCENTRICITY": 0.0029386, "INCLINATION": 74.0197, "RA_OF_ASC_NODE": 29.4751, "ARG_OF_PERICENTER": 99.5764, "MEAN_ANOMALY": 260.8742, "EPHEMERIS_TYPE": 0, "CLASSIFICATION_TYPE": "U", "NORAD_CAT_ID": 37316, "ELEMENT_SET_NO": 999, "REV_AT_EPOCH": 86081, "BSTAR": 0.0024026, "MEAN_MOTION_DOT": 0.00026043, "MEAN_MOTION_DDOT": 0}, "tle": {"line1": "1 37316U 93036BKG 25342.57204742  .00026043  00000+0  24026-2 0  9998", "line2": "2 37316  74.0197  29.4751 0029386  99.5764 260.8742 14.94224099860812"}}, "geometry": {"type": "Point", "coordinates": [-154.10989974137098, 6.604047033004994]}}, {"type": "Feature", "properties": {"norad_id": 37320, "name": "COSMOS 2251 DEB", "group": "cosmos-2251-debris", "lat": 43.00964137691006, "lon": 29.23394001902896, "alt_km": 662.348261174362, "timestamp": "2025-12-09T09:46:48.043432+00:00", "meta": {"OBJECT_NAME": "COSMOS 2251 DEB", "OBJECT_ID": "1993-036BKL", "EPOCH": "2025-12-07T10:04:58.850112", "MEAN_MOTION": 14.78679149, "ECCENTRICITY": 0.00469494, "INCLINATION": 74.0461, "RA_OF_ASC_NODE": 228.6135, "ARG_OF_PERICENTER": 316.7124, "MEAN_ANOMALY": 43.0365, "EPHEMERIS_TYPE": 0, "CLASSIFICATION_TYPE": "U", "NORAD_CAT_ID": 37320, "ELEMENT_SET_NO": 999, "REV_AT_EPOCH": 66068, "BSTAR": 0.0013976753, "MEAN_MOTION_DOT": 0.00010421, "MEAN_MOTION_DDOT": 0}, "tle": {"line1": "1 37320U 93036BKL 25341.42012558  .00010421  00000+0  13977-2 0  9994", "line2": "2 37320  74.0461 228.6135 0046949 316.7124  43.0365 14.78679149660685"}}, "geometry": {"type": "Point", "coordinates": [29.23394001902896, 43.00964137691006]}}, {"type": "Feature", "properties": {"norad_id": 37326, "name": "COSMOS 2251 DEB", "group": "cosmos-2251-debris", "lat": -7.2564948518003884, "lon": 163.1629236123408, "alt_km": 682.2927959845765, "timestamp": "2025-12-09T09:46:48.043443+00:00", "meta": {"OBJECT_NAME": "COSMOS 2251 DEB", "OBJECT_ID": "1993-036BKS", "EPOCH": "2025-12-08T08:17:20.797440", "MEAN_MOTION": 14.61543691, "ECCENTRICITY": 0.00548885, "INCLINATION": 74.0258, "RA_OF_ASC_NODE": 343.1049, "ARG_OF_PERICENTER": 113.4644, "MEAN_ANOMALY": 247.2306, "EPHEMERIS_TYPE": 0, "CLASSIFICATION_TYPE": "U", "NORAD_CAT_ID": 37326, "ELEMENT_SET_NO": 999, "REV_AT_EPOCH": 85419, "BSTAR": 0.00081462924, "MEAN_MOTION_DOT": 4.103e-05, "MEAN_MOTION_DDOT": 0}, "tle": {"line1": "1 37326U 93036BKS 25342.34537960  .00004103  00000+0  81463-3 0  9997", "line2": "2 37326  74.0258 343.1049 0054888 113.4644 247.2306 14.61543691854190"}}, "geometry": {"type": "Point", "coordinates": [163.1629236123408, -7.2564948518003884]}}, {"type": "Feature", "properties": {"norad_id": 37330, "name": "COSMOS 2251 DEB", "group": "cosmos-2251-debris", "lat": -27.258846157848634, "lon": 129.9401991937792, "alt_km": 678.1732058302377, "timestamp": "2025-12-09T09:46:48.043453+00:00", "meta": {"OBJECT_NAME": "COSMOS 2251 DEB", "OBJECT_ID": "1993-036BKW", "EPOCH": "2025-12-08T14:44:12.757056", "MEAN_MOTION": 14.59521863, "ECCENTRICITY": 0.0057164, "INCLINATION": 74.0185, "RA_OF_ASC_NODE": 302.963, "ARG_OF_PERICENTER": 152.6468, "MEAN_ANOMALY": 207.7728, "EPHEMERIS_TYPE": 0, "CLASSIFICATION_TYPE": "U", "NORAD_CAT_ID": 37330, "ELEMENT_SET_NO": 999, "REV_AT_EPOCH": 86308, "BSTAR": 0.00058808, "MEAN_MOTION_DOT": 2.827e-05, "MEAN_MOTION_DDOT": 0}, "tle": {"line1": "1 37330U 93036BKW 25342.61403654  .00002827  00000+0  58808-3 0  9992", "line2": "2 37330  74.0185 302.9630 0057164 152.6468 207.7728 14.59521863863083"}}, "geometry": {"type": "Point", "coordinates": [129.9401991937792, -27.258846157848634]}}]}